{"type": "FeatureCollection", "features": [ {"type": "Feature", "properties": {"norad_id": 41335, "name": "SENTINEL-3A", "group": "resource", "lat": -14.542763243539548, "lon": 55.114758857295904, "alt_km": 807.4565653077952, "timestamp": "2025-12-13T20:38:50.652170+00:00", "meta": {"OBJECT_NAME": "SENTINEL-3A", "OBJECT_ID": "2016-011A", "EPOCH": "2025-12-13T07:15:04.366368", "MEAN_MOTION": 14.26731217, "ECCENTRICITY": 9.526e-05, "INCLINATION": 98.6315, "RA_OF_ASC_NODE": 52.3061, "ARG_OF_PERICENTER": 91.2533, "MEAN_ANOMALY": 268.8756, "EPHEMERIS_TYPE": 0, "CLASSIFICATION_TYPE": "U", "NORAD_CAT_ID": 41335, "ELEMENT_SET_NO": 999, "REV_AT_EPOCH": 51155, "BSTAR": 0.00013426813, "MEAN_MOTION_DOT": 2.81e-06, "MEAN_MOTION_DDOT": 0}, "tle": {"line1": "1 41335U 16011A   25347.30213387  .00000281  00000+0  13427-3 0  9993", "line2": "2 41335  98.6315  52.3061 0000952  91.2533 268.8756 14.26731217511559"}}, "geometry": {"type": "Point", "coordinates": [55.114758857295904, -14.542763243539548]}}, {"type": "Feature", "properties": {"norad_id": 41556, "name": "ZIYUAN 3-2 (ZY 3-2)", "group": "resource", "lat": 60.433270789505116, "lon": -104.73939852067163, "alt_km": 500.4772587142061, "timestamp": "2025-12-13T20:38:50.652181+00:00", "meta": {"OBJECT_NAME": "ZIYUAN 3-2 (ZY 3-2)", "OBJECT_ID": "2016-033A", "EPOCH": "2025-12-13T07:29:58.723008", "MEAN_MOTION": 15.21517889, "ECCENTRICITY": 0.00125352, "INCLINATION": 97.4042, "RA_OF_ASC_NODE": 61.4702, "ARG_OF_PERICENTER": 246.767, "MEAN_ANOMALY": 113.2246, "EPHEMERIS_TYPE": 0, "CLASSIFICATION_TYPE": "U", "NORAD_CAT_ID": 41556, "ELEMENT_SET_NO": 999, "REV_AT_EPOCH": 52972, "BSTAR": 0.00053048071, "MEAN_MOTION_DOT": 0.00011907, "MEAN_MOTION_DDOT": 0}, "tle": {"line1": "1 41556U 16033A   25347.31248522  .00011907  00000+0  53048-3 0  9992", "line2": "2 41556  97.4042  61.4702 0012535 246.7670 113.2246 15.21517889529728"}}, "geometry": {"type": "Point", "coordinates": [-104.73939852067163, 60.433270789505116]}}, {"type": "Feature", "properties": {"norad_id": 41599, "name": "CARTOSAT-2C", "group": "resource", "lat": 53.04169445149299, "lon": 35.047748642102285, "alt_km": 495.63988008776414, "timestamp": "2025-12-13T20:38:50.652191+00:00", "meta": {"OBJECT_NAME": "CARTOSAT-2C", "OBJECT_ID": "2016-040A", "EPOCH": "2025-12-13T07:46:00.780096", "MEAN_MOTION": 15.19304092, "ECCENTRICITY": 0.00107665, "INCLINATION": 97.4764, "RA_OF_ASC_NODE": 44.5683, "ARG_OF_PERICENTER": 63.1973, "MEAN_ANOMALY": 297.0362, "EPHEMERIS_TYPE": 0, "CLASSIFICATION_TYPE": "U", "NORAD_CAT_ID": 41599, "ELEMENT_SET_NO": 999, "REV_AT_EPOCH": 52549, "BSTAR": 0.0003297272, "MEAN_MOTION_DOT": 6.903e-05, "MEAN_MOTION_DDOT": 0}, "tle": {"line1": "1 41599U 16040A   25347.32362014  .00006903  00000+0  32973-3 0  9995", "line2": "2 41599  97.4764  44.5683 0010766  63.1973 297.0362 15.19304092525494"}}, "geometry": {"type": "Point", "coordinates": [35.047748642102285, 53.04169445149299]}}, {"type": "Feature", "properties": {"norad_id": 41601, "name": "SKYSAT-C1", "group": "resource", "lat": 17.246254158119363, "lon": -153.00847286333246, "alt_km": 470.0065801560995, "timestamp": "2025-12-13T20:38:50.652202+00:00", "meta": {"OBJECT_NAME": "SKYSAT-C1", "OBJECT_ID": "2016-040C", "EPOCH": "2025-12-13T02:42:14.175648", "MEAN_MOTION": 15.32601016, "ECCENTRICITY": 0.00023168, "INCLINATION": 96.9831, "RA_OF_ASC_NODE": 24.1052, "ARG_OF_PERICENTER": 13.9913, "MEAN_ANOMALY": 346.1393, "EPHEMERIS_TYPE": 0, "CLASSIFICATION_TYPE": "U", "NORAD_CAT_ID": 41601, "ELEMENT_SET_NO": 999, "REV_AT_EPOCH": 52933, "BSTAR": 0.00043617023, "MEAN_MOTION_DOT": 0.00013669, "MEAN_MOTION_DDOT": 0}, "tle": {"line1": "1 41601U 16040C   25347.11266407  .00013669  00000+0  43617-3 0  9999", "line2": "2 41601  96.9831  24.1052 0002316  13.9913 346.1393 15.32601016529338"}}, "geometry": {"type": "Point", "coordinates": [-153.00847286333246, 17.246254158119363]}}, {"type": "Feature", "properties": {"norad_id": 41603, "name": "LAPAN-A3", "group": "resource", "lat": -57.3737331640053, "lon": -3.3267235911819495, "alt_km": 472.4849671869688, "timestamp": "2025-12-13T20:38:50.652213+00:00", "meta": {"OBJECT_NAME": "LAPAN-A3", "OBJECT_ID": "2016-040E", "EPOCH": "2025-12-13T06:47:15.952128", "MEAN_MOTION": 15.31559036, "ECCENTRICITY": 0.00095606, "INCLINATION": 97.1432, "RA_OF_ASC_NODE": 344.8193, "ARG_OF_PERICENTER": 331.9221, "MEAN_ANOMALY": 28.1505, "EPHEMERIS_TYPE": 0, "CLASSIFICATION_TYPE": "U", "NORAD_CAT_ID": 41603, "ELEMENT_SET_NO": 999, "REV_AT_EPOCH": 52634, "BSTAR": 0.00022252739, "MEAN_MOTION_DOT": 6.716e-05, "MEAN_MOTION_DDOT": 0}, "tle": {"line1": "1 41603U 16040E   25347.28282352  .00006716  00000+0  22253-3 0  9994", "line2": "2 41603  97.1432 344.8193 0009560 331.9221  28.1505 15.31559036526344"}}, "geometry": {"type": "Point", "coordinates": [-3.3267235911819495, -57.3737331640053]}}, {"type": "Feature", "properties": {"norad_id": 41604, "name": "BIROS", "group": "resource", "lat": 0.247015361809903, "lon": 19.307904480472047, "alt_km": 306.74820352648385, "timestamp": "2025-12-13T20:38:50.652223+00:00", "meta": {"OBJECT_NAME": "BIROS", "OBJECT_ID": "2016-040F", "EPOCH": "2025-12-13T01:00:39.504096", "MEAN_MOTION": 15.89878282, "ECCENTRICITY": 0.00034365, "INCLINATION": 97.0687, "RA_OF_ASC_NODE": 18.4869, "ARG_OF_PERICENTER": 147.9634, "MEAN_ANOMALY": 212.1849, "EPHEMERIS_TYPE": 0, "CLASSIFICATION_TYPE": "U", "NORAD_CAT_ID": 41604, "ELEMENT_SET_NO": 999, "REV_AT_EPOCH": 52877, "BSTAR": 0.00072930602, "MEAN_MOTION_DOT": 0.00214963, "MEAN_MOTION_DDOT": 1.8647686e-05}, "tle": {"line1": "1 41604U 16040F   25347.04212389  .00214963  18648-4  72931-3 0  9997", "line2": "2 41604  97.0687  18.4869 0003436 147.9634 212.1849 15.89878282528774"}}, "geometry": {"type": "Point", "coordinates": [19.307904480472047, 0.247015361809903]}}, {"type": "Feature", "properties": {"norad_id": 41727, "name": "GAOFEN-3", "group": "resource", "lat": 76.59587081267604, "lon": -44.91362469087685, "alt_km": 743.0147459426189, "timestamp": "2025-12-13T20:38:50.652233+00:00", "meta": {"OBJECT_NAME": "GAOFEN-3", "OBJECT_ID": "2016-049A", "EPOCH": "2025-12-13T06:57:34.362720", "MEAN_MOTION": 14.42214113, "ECCENTRICITY": 0.00014009, "INCLINATION": 98.4043, "RA_OF_ASC_NODE": 352.8678, "ARG_OF_PERICENTER": 60.7941, "MEAN_ANOMALY": 299.3389, "EPHEMERIS_TYPE": 0, "CLASSIFICATION_TYPE": "U", "NORAD_CAT_ID": 41727, "ELEMENT_SET_NO": 999, "REV_AT_EPOCH": 49185, "BSTAR": 7.5702671e-05, "MEAN_MOTION_DOT": 2.06e-06, "MEAN_MOTION_DDOT": 0}, "tle": {"line1": "1 41727U 16049A   25347.28998105  .00000206  00000+0  75703-4 0  9997", "line2": "2 41727  98.4043 352.8678 0001400  60.7941 299.3389 14.42214113491855"}}, "geometry": {"type": "Point", "coordinates": [-44.91362469087685, 76.59587081267604]}}, {"type": "Feature", "properties": {"norad_id": 41771, "name": "SKYSAT-C4", "group": "resource", "lat": 42.87597493864913, "lon": -160.514209064395, "alt_km": 434.78852239385105, "timestamp": "2025-12-13T20:38:50.652243+00:00", "meta": {"OBJECT_NAME": "SKYSAT-C4", "OBJECT_ID": "2016-058B", "EPOCH": "2025-12-13T07:35:58.976448", "MEAN_MOTION": 15.42275484, "ECCENTRICITY": 0.00015873, "INCLINATION": 96.9383, "RA_OF_ASC_NODE": 12.4762, "ARG_OF_PERICENTER": 134.4118, "MEAN_ANOMALY": 225.7261, "EPHEMERIS_TYPE": 0, "CLASSIFICATION_TYPE": "U", "NORAD_CAT_ID": 41771, "ELEMENT_SET_NO": 999, "REV_AT_EPOCH": 51676, "BSTAR": 0.00054615634, "MEAN_MOTION_DOT": 0.00023455, "MEAN_MOTION_DDOT": 0}, "tle": {"line1": "1 41771U 16058B   25347.31665482  .00023455  00000+0  54616-3 0  9999", "line2": "2 41771  96.9383  12.4762 0001587 134.4118 225.7261 15.42275484516767"}}, "geometry": {"type": "Point", "coordinates": [-160.514209064395, 42.87597493864913]}}, {"type": "Feature", "properties": {"norad_id": 41772, "name": "SKYSAT-C5", "group": "resource", "lat": 18.543483578075723, "lon": 29.176837473834677, "alt_km": 462.66967356325586, "timestamp": "2025-12-13T20:38:50.652254+00:00", "meta": {"OBJECT_NAME": "SKYSAT-C5", "OBJECT_ID": "2016-058C", "EPOCH": "2025-12-13T01:47:20.965344", "MEAN_MOTION": 15.34778093, "ECCENTRICITY": 0.00010953, "INCLINATION": 97.0765, "RA_OF_ASC_NODE": 30.8111, "ARG_OF_PERICENTER": 210.0244, "MEAN_ANOMALY": 150.0938, "EPHEMERIS_TYPE": 0, "CLASSIFICATION_TYPE": "U", "NORAD_CAT_ID": 41772, "ELEMENT_SET_NO": 999, "REV_AT_EPOCH": 51521, "BSTAR": 0.00044404262, "MEAN_MOTION_DOT": 0.00014908, "MEAN_MOTION_DDOT": 0}, "tle": {"line1": "1 41772U 16058C   25347.07454821  .00014908  00000+0  44404-3 0  9993", "line2": "2 41772  97.0765  30.8111 0001095 210.0244 150.0938 15.34778093515216"}}, "geometry": {"type": "Point", "coordinates": [29.176837473834677, 18.543483578075723]}}, {"type": "Feature", "properties": {"norad_id": 41773, "name": "SKYSAT-C2", "group": "resource", "lat": 40.838779776050806, "lon": 6.21045462488316, "alt_km": 448.1050448810156, "timestamp": "2025-12-13T20:38:50.652264+00:00", "meta": {"OBJECT_NAME": "SKYSAT-C2", "OBJECT_ID": "2016-058D", "EPOCH": "2025-12-13T01:43:20.616960", "MEAN_MOTION": 15.37281834, "ECCENTRICITY": 0.00042036, "INCLINATION": 97.037, "RA_OF_ASC_NODE": 11.5844, "ARG_OF_PERICENTER": 33.4812, "MEAN_ANOMALY": 326.6699, "EPHEMERIS_TYPE": 0, "CLASSIFICATION_TYPE": "U", "NORAD_CAT_ID": 41773, "ELEMENT_SET_NO": 999, "REV_AT_EPOCH": 51641, "BSTAR": 0.00045805845, "MEAN_MOTION_DOT": 0.00016674, "MEAN_MOTION_DDOT": 0}, "tle": {"line1": "1 41773U 16058D   25347.07176640  .00016674  00000+0  45806-3 0  9993", "line2": "2 41773  97.0370  11.5844 0004203  33.4812 326.6699 15.37281834516413"}}, "geometry": {"type": "Point", "coordinates": [6.21045462488316, 40.838779776050806]}}]}